HERMES-2                
1 63243U 25052AK  26068.92847372  .00009456  00000+0  34839-3 0  9999
2 63243  97.4004 324.4926 0006340  99.4160 260.7796 15.28021069 54859
STARLINK-34351          
1 64387U 25127T   26068.31403325  .00033068  00000+0  12051-2 0  9998
2 64387  42.9950 181.5511 0000119 283.2524  76.8314 15.27598977 42418
